{"fetched_at": "2026-03-10T12:39:04.751901+00:00", "count": 377, "satellites": [ {"name": "JASON-3", "tle1": "1 41240U 16002A   26069.20652050 -.00000016  00000+0  18150-3 0  9998", "tle2": "2 41240  66.0445 333.9349 0007765 277.0633  82.9502 12.87626058474506", "norad_id": 41240, "group": "resource", "highlight": false}, {"name": "SENTINEL-3A", "tle1": "1 41335U 16011A   26069.19311314  .00000158  00000+0  83461-4 0  9990", "tle2": "2 41335  98.6227 137.9725 0001245  98.8406 261.2915 14.26741907523943", "norad_id": 41335, "group": "resource", "highlight": true}, {"name": "ZIYUAN 3-02 (ZY 3-02)", "tle1": "1 41556U 16033A   26069.20050174  .00008371  00000+0  37371-3 0  9998", "tle2": "2 41556  97.3895 146.8466 0010997 296.8988  63.1123 15.21565092542930", "norad_id": 41556, "group": "resource", "highlight": false}, {"name": "CARTOSAT-2C", "tle1": "1 41599U 16040A   26069.19844675  .00003302  00000+0  15981-3 0  9990", "tle2": "2 41599  97.4601 130.4767 0010451 119.5191 240.7087 15.19228157538682", "norad_id": 41599, "group": "resource", "highlight": false}, {"name": "SKYSAT-C1", "tle1": "1 41601U 16040C   26069.02691773  .00010988  00000+0  33059-3 0  9999", "tle2": "2 41601  96.9702 106.1762 0003541  52.6309 307.5257 15.34521196542656", "norad_id": 41601, "group": "resource", "highlight": false}, {"name": "LAPAN-A3", "tle1": "1 41603U 16040E   26069.15559537  .00005620  00000+0  18180-3 0  9991", "tle2": "2 41603  97.1488  68.6145 0010960  21.4279 338.7420 15.32391992539642", "norad_id": 41603, "group": "resource", "highlight": false}, {"name": "GAOFEN-3", "tle1": "1 41727U 16049A   26069.22051436  .00000150  00000+0  58863-4 0  9996", "tle2": "2 41727  98.4056  78.4860 0001683  89.7435 270.3947 14.42216575504381", "norad_id": 41727, "group": "resource", "highlight": true}, {"name": "SKYSAT-C4", "tle1": "1 41771U 16058B   26069.04392301  .00019465  00000+0  40871-3 0  9992", "tle2": "2 41771  96.9292  95.1330 0000976 119.3491 240.7856 15.45388635530143", "norad_id": 41771, "group": "resource", "highlight": false}, {"name": "SKYSAT-C5", "tle1": "1 41772U 16058C   26069.08643920  .00010267  00000+0  31133-3 0  9995", "tle2": "2 41772  97.0615 114.1343 0001712  84.6199 275.5240 15.34300267528557", "norad_id": 41772, "group": "resource", "highlight": false}, {"name": "SKYSAT-C2", "tle1": "1 41773U 16058D   26069.03325754  .00014460  00000+0  36744-3 0  9995", "tle2": "2 41773  97.0283  94.9699 0005008  67.5350 292.6427 15.39712888529783", "norad_id": 41773, "group": "resource", "highlight": false}, {"name": "SKYSAT-C3", "tle1": "1 41774U 16058E   26069.07513564  .00024765  00000+0  46913-3 0  9996", "tle2": "2 41774  96.9177 103.9302 0001696 110.3652 249.7782 15.48340368530753", "norad_id": 41774, "group": "resource", "highlight": false}, {"name": "ALSAT-1B", "tle1": "1 41785U 16059C   26069.14696030  .00000950  00000+0  15805-3 0  9993", "tle2": "2 41785  97.7806  82.1722 0009165 175.9410 184.1874 14.72190102506005", "norad_id": 41785, "group": "resource", "highlight": false}, {"name": "PATHFINDER 1", "tle1": "1 41787U 16059E   26069.00328015  .00000989  00000+0  18164-3 0  9998", "tle2": "2 41787  97.8179  72.7629 0028967 159.7985 200.4374 14.67518979505163", "norad_id": 41787, "group": "resource", "highlight": false}, {"name": "SCATSAT 1", "tle1": "1 41790U 16059H   26069.12734956  .00001834  00000+0  24817-3 0  9992", "tle2": "2 41790  98.1303 131.8428 0054416 206.1152 153.7312 14.79264914 86947", "norad_id": 41790, "group": "resource", "highlight": false}, {"name": "GOKTURK 1A", "tle1": "1 41875U 16073A   26069.19694800  .00000610  00000+0  12878-3 0  9997", "tle2": "2 41875  98.1357 325.3648 0001377  79.2727 280.8630 14.62750559494359", "norad_id": 41875, "group": "resource", "highlight": false}, {"name": "RESOURCESAT-2A", "tle1": "1 41877U 16074A   26069.18341985  .00000236  00000+0  12800-3 0  9991", "tle2": "2 41877  98.7596 143.4701 0002458  35.0728 325.0610 14.21601300480239", "norad_id": 41877, "group": "resource", "highlight": false}, {"name": "CARTOSAT-2D", "tle1": "1 41948U 17008A   26069.29779223  .00000404  00000+0  22350-4 0  9999", "tle2": "2 41948  97.4232 130.3886 0004596 217.3006 142.7910 15.19257474502564", "norad_id": 41948, "group": "resource", "highlight": false}, {"name": "SENTINEL-2B", "tle1": "1 42063U 17013A   26069.18650855  .00000099  00000+0  54348-4 0  9993", "tle2": "2 42063  98.5650 145.3730 0001119  94.8716 265.2595 14.30820210470488", "norad_id": 42063, "group": "resource", "highlight": true}, {"name": "CARTOSAT-2E", "tle1": "1 42767U 17036C   26069.24881729 -.00000028  00000+0  18560-5 0  9992", "tle2": "2 42767  97.4403 130.6212 0002673 301.1899  58.9073 15.19190343483125", "norad_id": 42767, "group": "resource", "highlight": false}, {"name": "FORMOSAT-5", "tle1": "1 42920U 17049A   26069.22434837  .00000280  00000+0  82215-4 0  9995", "tle2": "2 42920  98.2311 146.7207 0011664  34.9405 325.2553 14.50822019452326", "norad_id": 42920, "group": "resource", "highlight": false}, {"name": "SENTINEL-5P", "tle1": "1 42969U 17064A   26068.81605154  .00000116  00000+0  76087-4 0  9999", "tle2": "2 42969  98.7881  11.6741 0001063  80.5850 279.5446 14.19549302435466", "norad_id": 42969, "group": "resource", "highlight": true}, {"name": "SKYSAT-C11", "tle1": "1 42987U 17068A   26069.16792593  .00035145  00000+0  57502-3 0  9996", "tle2": "2 42987  97.4204 214.1679 0000650  83.9185 276.2142 15.52439507467858", "norad_id": 42987, "group": "resource", "highlight": false}, {"name": "SKYSAT-C10", "tle1": "1 42988U 17068B   26069.18882884  .00015026  00000+0  47797-3 0  9993", "tle2": "2 42988  97.4338 205.3023 0001016  91.1613 268.9746 15.32695913467183", "norad_id": 42988, "group": "resource", "highlight": false}, {"name": "SKYSAT-C9", "tle1": "1 42989U 17068C   26069.16824317  .00019463  00000+0  50622-3 0  9999", "tle2": "2 42989  97.4261 205.3224 0009871 131.0772 229.1328 15.38909448467518", "norad_id": 42989, "group": "resource", "highlight": false}, {"name": "SKYSAT-C8", "tle1": "1 42990U 17068D   26068.91176019  .00006512  00000+0  19561-3 0  9990", "tle2": "2 42990  97.4375 204.4632 0001377 100.7274 259.4124 15.34771458467077", "norad_id": 42990, "group": "resource", "highlight": false}, {"name": "SKYSAT-C7", "tle1": "1 42991U 17068E   26068.90185345  .00013840  00000+0  41294-3 0  9992", "tle2": "2 42991  97.4366 205.4362 0007376 103.1891 257.0175 15.34728444467130", "norad_id": 42991, "group": "resource", "highlight": false}, {"name": "SKYSAT-C6", "tle1": "1 42992U 17068F   26069.15966638  .00014138  00000+0  45242-3 0  9991", "tle2": "2 42992  97.4401 205.9799 0003646 126.9038 233.2538 15.32514014467146", "norad_id": 42992, "group": "resource", "highlight": false}, {"name": "CARTOSAT-2F", "tle1": "1 43111U 18004A   26069.14922127  .00003575  00000+0  17273-3 0  9996", "tle2": "2 43111  97.4156 130.3003 0000927 203.0265 157.0929 15.19269098452295", "norad_id": 43111, "group": "resource", "highlight": false}, {"name": "GAOFEN-1 02", "tle1": "1 43259U 18031A   26069.21754716  .00000327  00000+0  54395-4 0  9993", "tle2": "2 43259  98.0640 131.9689 0002446 348.5198  11.5955 14.76443131428096", "norad_id": 43259, "group": "resource", "highlight": true}, {"name": "GAOFEN-1 03", "tle1": "1 43260U 18031B   26069.26336403  .00001104  00000+0  16618-3 0  9998", "tle2": "2 43260  98.0640 131.8841 0003439  49.0329 311.1178 14.76419292428096", "norad_id": 43260, "group": "resource", "highlight": true}, {"name": "GAOFEN-1 04", "tle1": "1 43262U 18031D   26069.17139844  .00000820  00000+0  12540-3 0  9994", "tle2": "2 43262  98.0641 131.9705 0001877  78.8777 281.2643 14.76437628428075", "norad_id": 43262, "group": "resource", "highlight": true}, {"name": "SENTINEL-3B", "tle1": "1 43437U 18039A   26069.16625104  .00000148  00000+0  78998-4 0  9997", "tle2": "2 43437  98.6226 138.0931 0000962 127.9495 232.1772 14.26736587410003", "norad_id": 43437, "group": "resource", "highlight": true}, {"name": "GAOFEN-5 01", "tle1": "1 43461U 18043A   26068.93226053  .00000583  00000+0  13018-3 0  9997", "tle2": "2 43461  98.4468  38.4968 0002632  51.5893 308.5542 14.60523795417204", "norad_id": 43461, "group": "resource", "highlight": true}, {"name": "GAOFEN-6", "tle1": "1 43484U 18048A   26069.20268039  .00001018  00000+0  15272-3 0  9996", "tle2": "2 43484  97.7867 135.4651 0013201 133.2412 226.9903 14.76597645418780", "norad_id": 43484, "group": "resource", "highlight": true}, {"name": "GAOFEN-11 01", "tle1": "1 43585U 18063A   26069.19061906  .00023833  00000+0  39298-3 0  9990", "tle2": "2 43585  97.1406 136.5076 0003661   1.7877 358.3388 15.52288525424975", "norad_id": 43585, "group": "resource", "highlight": true}, {"name": "ICESAT-2", "tle1": "1 43613U 18070A   26069.15073766  .00004041  00000+0  14644-3 0  9991", "tle2": "2 43613  91.9993 264.2926 0003839 123.5279 236.6337 15.28330764417339", "norad_id": 43613, "group": "resource", "highlight": false}, {"name": "HYSIS", "tle1": "1 43719U 18096A   26069.14224994  .00001776  00000+0  24948-3 0  9996", "tle2": "2 43719  97.9936 136.6227 0001761  98.3051 261.8360 14.78660594392782", "norad_id": 43719, "group": "resource", "highlight": false}, {"name": "KAZSTSAT", "tle1": "1 43783U 18099AB  26069.08603640  .00001344  00000+0  11369-3 0  9996", "tle2": "2 43783  97.4395 105.4591 0006468   9.6057 350.5289 14.99621884396451", "norad_id": 43783, "group": "resource", "highlight": false}, {"name": "SAUDISAT 5A", "tle1": "1 43831U 18102A   26069.18271569  .00007965  00000+0  30320-3 0  9990", "tle2": "2 43831  97.3185 132.6909 0011369 121.1010 239.1346 15.26944596400564", "norad_id": 43831, "group": "resource", "highlight": false}, {"name": "SAUDISAT 5B", "tle1": "1 43833U 18102C   26069.21991828  .00007576  00000+0  28583-3 0  9999", "tle2": "2 43833  97.3281 135.6203 0012063 123.2750 236.9647 15.27253812400686", "norad_id": 43833, "group": "resource", "highlight": false}]}